OBJECT_NAME,OBJECT_ID,EPOCH,MEAN_MOTION,ECCENTRICITY,INCLINATION,RA_OF_ASC_NODE,ARG_OF_PERICENTER,MEAN_ANOMALY,EPHEMERIS_TYPE,CLASSIFICATION_TYPE,NORAD_CAT_ID,ELEMENT_SET_NO,REV_AT_EPOCH,BSTAR,MEAN_MOTION_DOT,MEAN_MOTION_DDOT
ONEWEB-0597,2022-166X,2026-07-08T09:45:59.769792,13.21825966,.00019771,87.9237,239.7646,94.6336,265.5024,0,U,54663,999,17434,-.63030336E-3,-.247E-5,0
ONEWEB-0600,2022-166Y,2026-07-08T09:19:23.193696,13.21826419,.00019148,87.9236,239.7599,99.8135,260.3215,0,U,54664,999,17431,.32837281E-3,.149E-5,0
ONEWEB-0601,2022-166Z,2026-07-08T09:07:15.360096,13.21825270,.00018424,87.9233,239.7773,91.3325,268.8020,0,U,54665,999,17450,-.81578405E-4,-.21E-6,0
ONEWEB-0602,2022-166AA,2026-07-08T10:06:34.870752,13.21826376,.0001814,87.9233,239.7747,100.4779,259.6560,0,U,54666,999,17435,-.38224978E-3,-.145E-5,0
ONEWEB-0603,2022-166AB,2026-07-08T13:53:04.265376,13.21828133,.00019352,87.9245,239.7031,97.7070,262.4284,0,U,54667,999,17430,-.15568419E-3,-.51E-6,0
ONEWEB-0604,2022-166AC,2026-07-08T09:58:05.953152,13.21823991,.00021613,87.9245,239.7516,99.8654,260.2724,0,U,54668,999,17424,.15502332E-3,.77E-6,0
ONEWEB-0605,2022-166AD,2026-07-08T09:48:25.172352,13.21828024,.00020936,87.9237,239.7639,79.2306,280.9064,0,U,54669,999,17431,.11184364E-3,.59E-6,0
ONEWEB-0606,2022-166AE,2026-07-08T10:19:54.987456,13.21825516,.00021531,87.9236,239.7723,102.2707,257.8668,0,U,54670,999,17437,.12971373E-3,.67E-6,0
ONEWEB-0607,2022-166AF,2026-07-08T02:15:29.191104,13.21825542,.00019193,87.9243,239.8114,95.8700,264.2652,0,U,54671,999,17430,.13898718E-3,.7E-6,0
ONEWEB-0608,2022-166AG,2026-07-08T02:25:07.577760,13.21823448,.00018599,87.9248,239.8070,81.8869,278.2476,0,U,54672,999,17431,.6144135E-4,.38E-6,0
ONEWEB-0610,2022-166AH,2026-07-08T09:12:07.116480,13.21825824,.0001551,87.9234,239.7636,84.4337,275.6974,0,U,54673,999,17425,-.6926718E-4,-.16E-6,0
ONEWEB-0611,2022-166AJ,2026-07-08T09:02:23.725536,13.21826581,.00022356,87.9236,239.7602,99.2294,260.9093,0,U,54674,999,17424,.21021099E-3,.1E-5,0
ONEWEB-0612,2022-166AK,2026-07-08T09:21:48.191904,13.21826033,.00019722,87.9246,239.7553,93.6291,266.5069,0,U,54675,999,17423,-.42344484E-4,-.4E-7,0
ONEWEB-0615,2022-166AL,2026-07-08T08:52:42.448800,13.21828058,.00022135,87.9239,239.7723,103.4708,256.6673,0,U,54676,999,17424,.25971031E-4,.24E-6,0
ONEWEB-0655,2022-166AM,2026-07-08T10:07:47.619552,13.21828073,.00018645,87.9244,239.7616,96.4558,263.6788,0,U,54677,999,17424,.15487709E-3,.77E-6,0
ONEWEB-0659,2022-166AN,2026-07-08T14:10:01.748064,13.21823985,.00021261,87.9234,239.7292,97.3853,262.7523,0,U,54678,999,17435,-.13307418E-3,-.42E-6,0
ONEWEB-0685,2022-166AP,2026-07-08T14:09:39.872448,13.21848036,.00018203,87.9237,239.7196,84.2023,275.9318,0,U,54679,999,17424,.2047952E-5,.14E-6,0
ONEWEB-0712,2022-166AQ,2026-07-08T08:08:23.557056,13.16595859,.00017517,87.9085,224.5740,104.2038,255.9288,0,U,54680,999,17484,-.13347166E-4,.8E-7,0
ONEWEB-0714,2022-166AR,2026-07-08T08:50:18.955680,13.21826077,.00019315,87.9237,239.7629,104.3371,255.7978,0,U,54681,999,17433,.88350557E-4,.5E-6,0
ONEWEB-0532,2023-004A,2026-07-08T10:42:57.872160,13.17648233,.00020844,87.9133,1.6340,83.1767,276.9601,0,U,55140,999,17038,.15922666E-3,.75E-6,0
ONEWEB-0533,2023-004B,2026-07-08T10:08:35.244096,13.12442940,.00016926,87.8956,346.4473,92.0094,268.1229,0,U,55141,999,17084,.13351896E-2,.493E-5,0
ONEWEB-0541,2023-004C,2026-07-08T11:15:29.747520,13.11415464,.00020245,87.8889,16.8214,89.6002,270.5358,0,U,55142,999,16873,-.135955E-2,-.469E-5,0
ONEWEB-0543,2023-004D,2026-07-08T09:49:22.738944,13.18687046,.00018002,87.9180,331.2471,103.6892,256.4441,0,U,55143,999,17249,.20382978E-3,.93E-6,0
ONEWEB-0544,2023-004E,2026-07-08T07:50:24.245664,13.18687511,.00019949,87.9183,331.2633,102.5179,257.6176,0,U,55144,999,17248,.12129011E-3,.61E-6,0
ONEWEB-0560,2023-004F,2026-07-08T07:40:40.743264,13.18684355,.0001936,87.9181,331.2538,102.9914,257.1435,0,U,55145,999,17249,.15115167E-3,.73E-6,0
ONEWEB-0565,2023-004G,2026-07-08T09:20:15.188352,13.18686884,.00022574,87.9174,331.2665,93.4456,266.6934,0,U,55146,999,17249,.59743762E-4,.36E-6,0
ONEWEB-0567,2023-004H,2026-07-08T09:10:32.071296,13.18687600,.00022552,87.9181,331.2535,100.8211,259.3175,0,U,55147,999,17249,.64311398E-4,.38E-6,0
ONEWEB-0569,2023-004J,2026-07-08T08:06:30.126816,13.13471648,.00025458,87.8986,316.0109,116.8798,243.2592,0,U,55148,999,17295,.10120882E-2,.382E-5,0
ONEWEB-0570,2023-004K,2026-07-08T08:58:23.485152,13.18686414,.00021208,87.9180,331.2528,88.0703,272.0672,0,U,55149,999,17248,.10986251E-4,.17E-6,0
ONEWEB-0571,2023-004L,2026-07-08T08:48:41.463648,13.18685578,.00030639,87.9180,331.2536,107.8504,252.2962,0,U,55150,999,17249,.13548691E-3,.66E-6,0
