ONEWEB-0597             
1 54663U 22166X   26189.40694178 -.00000247  00000+0 -63030-3 0  9995
2 54663  87.9237 239.7646 0001977  94.6336 265.5024 13.21825966174340
ONEWEB-0600             
1 54664U 22166Y   26189.38846289  .00000149  00000+0  32837-3 0  9995
2 54664  87.9236 239.7599 0001914  99.8135 260.3215 13.21826419174318
ONEWEB-0601             
1 54665U 22166Z   26189.38003889 -.00000021  00000+0 -81578-4 0  9995
2 54665  87.9233 239.7773 0001842  91.3325 268.8020 13.21825270174500
ONEWEB-0602             
1 54666U 22166AA  26189.42123693 -.00000145  00000+0 -38225-3 0  9994
2 54666  87.9233 239.7747 0001814 100.4779 259.6560 13.21826376174354
ONEWEB-0603             
1 54667U 22166AB  26189.57852159 -.00000051  00000+0 -15568-3 0  9998
2 54667  87.9245 239.7031 0001935  97.7070 262.4284 13.21828133174303
ONEWEB-0604             
1 54668U 22166AC  26189.41534668  .00000077  00000+0  15502-3 0  9998
2 54668  87.9245 239.7516 0002161  99.8654 260.2724 13.21823991174240
ONEWEB-0605             
1 54669U 22166AD  26189.40862468  .00000059  00000+0  11184-3 0  9992
2 54669  87.9237 239.7639 0002093  79.2306 280.9064 13.21828024174314
ONEWEB-0606             
1 54670U 22166AE  26189.43049754  .00000067  00000+0  12971-3 0  9996
2 54670  87.9236 239.7723 0002153 102.2707 257.8668 13.21825516174370
ONEWEB-0607             
1 54671U 22166AF  26189.09408786  .00000070  00000+0  13899-3 0  9997
2 54671  87.9243 239.8114 0001919  95.8700 264.2652 13.21825542174300
ONEWEB-0608             
1 54672U 22166AG  26189.10078215  .00000038  00000+0  61441-4 0  9991
2 54672  87.9248 239.8070 0001859  81.8869 278.2476 13.21823448174314
ONEWEB-0610             
1 54673U 22166AH  26189.38341570 -.00000016  00000+0 -69267-4 0  9991
2 54673  87.9234 239.7636 0001551  84.4337 275.6974 13.21825824174252
ONEWEB-0611             
1 54674U 22166AJ  26189.37666349  .00000100  00000+0  21021-3 0  9992
2 54674  87.9236 239.7602 0002235  99.2294 260.9093 13.21826581174243
ONEWEB-0612             
1 54675U 22166AK  26189.39014111 -.00000004  00000+0 -42344-4 0  9996
2 54675  87.9246 239.7553 0001972  93.6291 266.5069 13.21826033174238
ONEWEB-0615             
1 54676U 22166AL  26189.36993575  .00000024  00000+0  25971-4 0  9991
2 54676  87.9239 239.7723 0002213 103.4708 256.6673 13.21828058174243
ONEWEB-0655             
1 54677U 22166AM  26189.42207893  .00000077  00000+0  15488-3 0  9999
2 54677  87.9244 239.7616 0001864  96.4558 263.6788 13.21828073174248
ONEWEB-0659             
1 54678U 22166AN  26189.59029801 -.00000042  00000+0 -13307-3 0  9991
2 54678  87.9234 239.7292 0002126  97.3853 262.7523 13.21823985174354
ONEWEB-0685             
1 54679U 22166AP  26189.59004482  .00000014  00000+0  20480-5 0  9999
2 54679  87.9237 239.7196 0001820  84.2023 275.9318 13.21848036174245
ONEWEB-0712             
1 54680U 22166AQ  26189.33916154  .00000008  00000+0 -13347-4 0  9998
2 54680  87.9085 224.5740 0001751 104.2038 255.9288 13.16595859174843
ONEWEB-0714             
1 54681U 22166AR  26189.36827495  .00000050  00000+0  88351-4 0  9994
2 54681  87.9237 239.7629 0001931 104.3371 255.7978 13.21826077174331
ONEWEB-0532             
1 55140U 23004A   26189.44650315  .00000075  00000+0  15923-3 0  9992
2 55140  87.9133   1.6340 0002084  83.1767 276.9601 13.17648233170386
ONEWEB-0533             
1 55141U 23004B   26189.42263014  .00000493  00000+0  13352-2 0  9994
2 55141  87.8956 346.4473 0001692  92.0094 268.1229 13.12442940170844
ONEWEB-0541             
1 55142U 23004C   26189.46909430 -.00000469  00000+0 -13595-2 0  9992
2 55142  87.8889  16.8214 0002024  89.6002 270.5358 13.11415464168737
ONEWEB-0543             
1 55143U 23004D   26189.40929096  .00000093  00000+0  20383-3 0  9992
2 55143  87.9180 331.2471 0001800 103.6892 256.4441 13.18687046172495
ONEWEB-0544             
1 55144U 23004E   26189.32666951  .00000061  00000+0  12129-3 0  9996
2 55144  87.9183 331.2633 0001994 102.5179 257.6176 13.18687511172483
ONEWEB-0560             
1 55145U 23004F   26189.31991601  .00000073  00000+0  15115-3 0  9990
2 55145  87.9181 331.2538 0001936 102.9914 257.1435 13.18684355172490
ONEWEB-0565             
1 55146U 23004G   26189.38906468  .00000036  00000+0  59744-4 0  9991
2 55146  87.9174 331.2665 0002257  93.4456 266.6934 13.18686884172494
ONEWEB-0567             
1 55147U 23004H   26189.38231564  .00000038  00000+0  64311-4 0  9998
2 55147  87.9181 331.2535 0002255 100.8211 259.3175 13.18687600172492
ONEWEB-0569             
1 55148U 23004J   26189.33784869  .00000382  00000+0  10121-2 0  9995
2 55148  87.8986 316.0109 0002545 116.8798 243.2592 13.13471648172956
ONEWEB-0570             
1 55149U 23004K   26189.37388293  .00000017  00000+0  10986-4 0  9997
2 55149  87.9180 331.2528 0002120  88.0703 272.0672 13.18686414172484
ONEWEB-0571             
1 55150U 23004L   26189.36714657  .00000066  00000+0  13549-3 0  9996
2 55150  87.9180 331.2536 0003063 107.8504 252.2962 13.18685578172494
